[{"OBJECT_NAME":"STARLINK-5794","OBJECT_ID":"2023-042W","EPOCH":"2026-03-09T00:23:42.562176","MEAN_MOTION":15.02534429,"ECCENTRICITY":6.895e-5,"INCLINATION":43.0014,"RA_OF_ASC_NODE":59.3729,"ARG_OF_PERICENTER":256.3296,"MEAN_ANOMALY":103.7469,"EPHEMERIS_TYPE":0,"CLASSIFICATION_TYPE":"U","NORAD_CAT_ID":56006,"ELEMENT_SET_NO":999,"REV_AT_EPOCH":16281,"BSTAR":-1.0557403e-5,"MEAN_MOTION_DOT":-3.46e-6,"MEAN_MOTION_DDOT":0},{"OBJECT_NAME":"USA 25","OBJECT_ID":"1987-043H","EPOCH":"2026-03-09T22:37:27.916608","MEAN_MOTION":13.88545808,"ECCENTRICITY":0.07905574,"INCLINATION":63.2894,"RA_OF_ASC_NODE":272.1916,"ARG_OF_PERICENTER":101.4908,"MEAN_ANOMALY":267.5915,"EPHEMERIS_TYPE":0,"CLASSIFICATION_TYPE":"U","NORAD_CAT_ID":18025,"ELEMENT_SET_NO":999,"REV_AT_EPOCH":33808,"BSTAR":0.0008943639,"MEAN_MOTION_DOT":0.00017183,"MEAN_MOTION_DDOT":0}]
